OBJECT_NAME,OBJECT_ID,EPOCH,MEAN_MOTION,ECCENTRICITY,INCLINATION,RA_OF_ASC_NODE,ARG_OF_PERICENTER,MEAN_ANOMALY,EPHEMERIS_TYPE,CLASSIFICATION_TYPE,NORAD_CAT_ID,ELEMENT_SET_NO,REV_AT_EPOCH,BSTAR,MEAN_MOTION_DOT,MEAN_MOTION_DDOT
ONEWEB-0275,2021-060AC,2026-06-15T04:15:37.411776,13.16594513,.00019379,87.9100,229.1746,96.0664,264.0687,0,U,48993,999,23929,.32455258E-3,.137E-5,0
ONEWEB-0276,2021-060AD,2026-06-15T03:14:03.434208,13.16594014,.00019788,87.9095,229.1827,93.3628,266.7729,0,U,48994,999,23930,.17585301E-3,.8E-6,0
ONEWEB-0277,2021-060AE,2026-06-15T03:32:18.561984,13.16593516,.00019,87.9090,229.1891,101.3836,258.7509,0,U,48995,999,23929,.23932501E-3,.104E-5,0
ONEWEB-0278,2021-060AF,2026-06-15T03:18:35.435232,13.16593235,.00022486,87.9100,229.1810,100.5823,259.5561,0,U,48996,999,23942,-.38978173E-3,-.136E-5,0
ONEWEB-0279,2021-060AG,2026-06-15T03:30:01.270656,13.16594117,.0001772,87.9098,229.1777,96.8505,263.2828,0,U,48997,999,23935,.22536914E-3,.99E-6,0
ONEWEB-0280,2021-060AH,2026-06-15T05:41:06.353376,13.16593542,.0002094,87.9098,229.1639,107.8350,252.3009,0,U,48998,999,23930,.39798216E-3,.165E-5,0
ONEWEB-0281,2021-060AJ,2026-06-15T03:59:39.593472,13.16595192,.00020914,87.9101,229.1729,98.4076,261.7292,0,U,48999,999,23936,.46592706E-3,.191E-5,0
ONEWEB-0282,2021-060AK,2026-06-15T04:42:57.047904,13.16592664,.00019828,87.9097,229.1754,101.2538,258.8816,0,U,49000,999,23934,.4619505E-4,.31E-6,0
ONEWEB-0283,2021-060AL,2026-06-15T04:27:00.738144,13.16594705,.00018807,87.9098,229.1770,97.5593,262.5751,0,U,49001,999,23935,.29471867E-3,.126E-5,0
ONEWEB-0284,2021-060AM,2026-06-15T04:17:54.086208,13.16594792,.0002242,87.9098,229.1716,105.5240,254.6139,0,U,49002,999,23933,.27980059E-3,.12E-5,0
ONEWEB-0285,2021-075A,2026-06-15T05:32:01.123584,13.12442864,.00017716,87.8946,351.0510,91.9120,268.2212,0,U,49075,999,23495,-.12909827E-2,-.452E-5,0
ONEWEB-0286,2021-075B,2026-06-15T01:26:38.977440,13.12441814,.00019932,87.8936,351.1020,86.6512,273.4844,0,U,49076,999,23428,.36574272E-4,.26E-6,0
ONEWEB-0287,2021-075C,2026-06-14T23:08:53.053152,13.17649439,.00022774,87.9134,6.3082,85.5960,274.5432,0,U,49077,999,23333,.51437749E-4,.33E-6,0
ONEWEB-0288,2021-075D,2026-06-14T21:13:08.238432,13.12443754,.0002029,87.8945,351.1134,92.5112,267.6248,0,U,49078,999,23488,.12054E-2,.446E-5,0
ONEWEB-0289,2021-075E,2026-06-15T01:53:55.402080,13.17649827,.00018242,87.9139,6.3021,100.6130,259.5208,0,U,49079,999,23392,-.15207227E-4,.7E-7,0
ONEWEB-0290,2021-075F,2026-06-15T01:15:15.148224,13.17648515,.00017789,87.9142,6.2793,104.2535,255.8795,0,U,49080,999,23333,.88581426E-4,.47E-6,0
ONEWEB-0291,2021-075G,2026-06-15T02:42:43.780608,13.17649008,.00021825,87.9136,6.2748,93.5620,266.5762,0,U,49081,999,23333,-.17217718E-3,-.54E-6,0
ONEWEB-0293,2021-075H,2026-06-15T01:29:49.050528,13.17647980,.00018689,87.9132,6.2883,92.9174,267.2171,0,U,49082,999,23335,.13005421E-3,.63E-6,0
ONEWEB-0294,2021-075J,2026-06-15T06:31:48.236448,13.12443302,.00018106,87.8947,351.0399,101.4859,258.6473,0,U,49083,999,23432,.10487082E-2,.39E-5,0
ONEWEB-0295,2021-075K,2026-06-15T01:28:36.485760,13.17647953,.00021672,87.9133,6.2925,90.0279,270.1101,0,U,49084,999,23331,.70489454E-4,.4E-6,0
ONEWEB-0296,2021-075L,2026-06-15T00:33:10.489248,13.12444107,.00021483,87.8951,351.0967,94.3364,265.8011,0,U,49085,999,23429,.10669679E-3,.51E-6,0
ONEWEB-0297,2021-075M,2026-06-15T01:17:05.385120,13.12442554,.00019081,87.8936,351.1017,89.8176,270.3171,0,U,49086,999,23490,.62919111E-3,.239E-5,0
ONEWEB-0298,2021-075N,2026-06-15T07:02:55.541760,13.17647439,.00019158,87.9132,6.2443,84.3265,275.8085,0,U,49087,999,23337,-.17359793E-4,.6E-7,0
ONEWEB-0299,2021-075P,2026-06-15T01:37:07.096800,13.17649603,.00020231,87.9143,6.2693,86.7434,273.3929,0,U,49088,999,23332,-.83445651E-4,-.2E-6,0
ONEWEB-0300,2021-075Q,2026-06-15T01:06:06.416640,13.12443836,.00018508,87.8948,351.0823,78.1091,282.0245,0,U,49089,999,23492,.98596E-3,.367E-5,0
ONEWEB-0301,2021-075R,2026-06-14T22:53:08.752992,13.12445307,.00017103,87.8946,351.0991,79.9064,280.2258,0,U,49090,999,23427,.85591753E-3,.321E-5,0
ONEWEB-0302,2021-075S,2026-06-15T00:23:25.043712,13.12444017,.00019204,87.8949,351.0985,99.8751,260.2595,0,U,49091,999,23426,-.50153887E-3,-.168E-5,0
ONEWEB-0304,2021-075T,2026-06-15T02:50:00.757248,13.17649172,.00020372,87.9134,6.2817,87.8781,272.2584,0,U,49092,999,23330,-.19262761E-3,-.62E-6,0
ONEWEB-0305,2021-075U,2026-06-15T02:40:17.715360,13.17649341,.00022574,87.9142,6.2672,86.6422,273.4968,0,U,49093,999,23333,-.1316325E-3,-.38E-6,0
ONEWEB-0308,2021-075V,2026-06-15T00:13:39.195552,13.12443430,.00018051,87.8948,351.0920,90.1979,269.9357,0,U,49094,999,23427,-.1068759E-2,-.372E-5,0
