ONEWEB-0275             
1 48993U 21060AC  26166.17751634  .00000137  00000+0  32455-3 0  9999
2 48993  87.9100 229.1746 0001937  96.0664 264.0687 13.16594513239298
ONEWEB-0276             
1 48994U 21060AD  26166.13476197  .00000080  00000+0  17585-3 0  9998
2 48994  87.9095 229.1827 0001978  93.3628 266.7729 13.16594014239301
ONEWEB-0277             
1 48995U 21060AE  26166.14743706  .00000104  00000+0  23933-3 0  9994
2 48995  87.9090 229.1891 0001900 101.3836 258.7509 13.16593516239295
ONEWEB-0278             
1 48996U 21060AF  26166.13791013 -.00000136  00000+0 -38978-3 0  9990
2 48996  87.9100 229.1810 0002248 100.5823 259.5561 13.16593235239422
ONEWEB-0279             
1 48997U 21060AG  26166.14584804  .00000099  00000+0  22537-3 0  9990
2 48997  87.9098 229.1777 0001772  96.8505 263.2828 13.16594117239356
ONEWEB-0280             
1 48998U 21060AH  26166.23687909  .00000165  00000+0  39798-3 0  9992
2 48998  87.9098 229.1639 0002094 107.8350 252.3009 13.16593542239309
ONEWEB-0281             
1 48999U 21060AJ  26166.16643048  .00000191  00000+0  46593-3 0  9991
2 48999  87.9101 229.1729 0002091  98.4076 261.7292 13.16595192239369
ONEWEB-0282             
1 49000U 21060AK  26166.19649361  .00000031  00000+0  46195-4 0  9994
2 49000  87.9097 229.1754 0001982 101.2538 258.8816 13.16592664239347
ONEWEB-0283             
1 49001U 21060AL  26166.18542521  .00000126  00000+0  29472-3 0  9997
2 49001  87.9098 229.1770 0001880  97.5593 262.5751 13.16594705239351
ONEWEB-0284             
1 49002U 21060AM  26166.17909822  .00000120  00000+0  27980-3 0  9994
2 49002  87.9098 229.1716 0002242 105.5240 254.6139 13.16594792239330
ONEWEB-0285             
1 49075U 21075A   26166.23056856 -.00000452  00000+0 -12910-2 0  9993
2 49075  87.8946 351.0510 0001771  91.9120 268.2212 13.12442864234953
ONEWEB-0286             
1 49076U 21075B   26166.06017335  .00000026  00000+0  36574-4 0  9993
2 49076  87.8936 351.1020 0001993  86.6512 273.4844 13.12441814234281
ONEWEB-0287             
1 49077U 21075C   26165.96450293  .00000033  00000+0  51438-4 0  9990
2 49077  87.9134   6.3082 0002277  85.5960 274.5432 13.17649439233339
ONEWEB-0288             
1 49078U 21075D   26165.88412313  .00000446  00000+0  12054-2 0  9990
2 49078  87.8945 351.1134 0002029  92.5112 267.6248 13.12443754234886
ONEWEB-0289             
1 49079U 21075E   26166.07911345  .00000007  00000+0 -15207-4 0  9991
2 49079  87.9139   6.3021 0001824 100.6130 259.5208 13.17649827233924
ONEWEB-0290             
1 49080U 21075F   26166.05225866  .00000047  00000+0  88581-4 0  9995
2 49080  87.9142   6.2793 0001778 104.2535 255.8795 13.17648515233330
ONEWEB-0291             
1 49081U 21075G   26166.11300672 -.00000054  00000+0 -17218-3 0  9990
2 49081  87.9136   6.2748 0002182  93.5620 266.5762 13.17649008233330
ONEWEB-0293             
1 49082U 21075H   26166.06237327  .00000063  00000+0  13005-3 0  9999
2 49082  87.9132   6.2883 0001868  92.9174 267.2171 13.17647980233355
ONEWEB-0294             
1 49083U 21075J   26166.27208607  .00000390  00000+0  10487-2 0  9995
2 49083  87.8947 351.0399 0001810 101.4859 258.6473 13.12443302234329
ONEWEB-0295             
1 49084U 21075K   26166.06153340  .00000040  00000+0  70489-4 0  9998
2 49084  87.9133   6.2925 0002167  90.0279 270.1101 13.17647953233315
ONEWEB-0296             
1 49085U 21075L   26166.02303807  .00000051  00000+0  10670-3 0  9997
2 49085  87.8951 351.0967 0002148  94.3364 265.8011 13.12444107234291
ONEWEB-0297             
1 49086U 21075M   26166.05353455  .00000239  00000+0  62919-3 0  9996
2 49086  87.8936 351.1017 0001908  89.8176 270.3171 13.12442554234905
ONEWEB-0298             
1 49087U 21075N   26166.29369840  .00000006  00000+0 -17360-4 0  9992
2 49087  87.9132   6.2443 0001915  84.3265 275.8085 13.17647439233371
ONEWEB-0299             
1 49088U 21075P   26166.06744325 -.00000020  00000+0 -83446-4 0  9998
2 49088  87.9143   6.2693 0002023  86.7434 273.3929 13.17649603233326
ONEWEB-0300             
1 49089U 21075Q   26166.04590760  .00000367  00000+0  98596-3 0  9992
2 49089  87.8948 351.0823 0001850  78.1091 282.0245 13.12443836234926
ONEWEB-0301             
1 49090U 21075R   26165.95357353  .00000321  00000+0  85592-3 0  9994
2 49090  87.8946 351.0991 0001710  79.9064 280.2258 13.12445307234273
ONEWEB-0302             
1 49091U 21075S   26166.01626208 -.00000168  00000+0 -50154-3 0  9998
2 49091  87.8949 351.0985 0001920  99.8751 260.2595 13.12444017234265
ONEWEB-0304             
1 49092U 21075T   26166.11806432 -.00000062  00000+0 -19263-3 0  9998
2 49092  87.9134   6.2817 0002037  87.8781 272.2584 13.17649172233305
ONEWEB-0305             
1 49093U 21075U   26166.11131615 -.00000038  00000+0 -13163-3 0  9999
2 49093  87.9142   6.2672 0002257  86.6422 273.4968 13.17649341233337
ONEWEB-0308             
1 49094U 21075V   26166.00948143 -.00000372  00000+0 -10688-2 0  9999
2 49094  87.8948 351.0920 0001805  90.1979 269.9357 13.12443430234275
